IRIDIUM 116             
1 43072U 17083C   25056.55647203  .00000029  00000+0  34425-5 0  9998
2 43072  86.4037 161.2437 0002024  93.0380 267.1047 14.34217765375856
IRIDIUM 130             
1 43073U 17083D   25056.52475861  .00000344  00000+0  11594-3 0  9995
2 43073  86.4047 161.4855 0002172  89.7184 270.4261 14.34219132375790
IRIDIUM 151             
1 43074U 17083E   25056.22031419  .00000097  00000+0  27440-4 0  9993
2 43074  86.4039 161.4308 0001945  96.0505 264.0912 14.34218226375773
IRIDIUM 134             
1 43075U 17083F   25056.53744412  .00000256  00000+0  84450-4 0  9993
2 43075  86.4039 161.3001 0002228  91.2654 268.8797 14.34218688375786
IRIDIUM 137             
1 43076U 17083G   25056.55012714  .00000294  00000+0  98033-4 0  9993
2 43076  86.4043 161.3778 0001617  88.9494 271.1887 14.34218980375859
IRIDIUM 141             
1 43077U 17083H   25056.54378725  .00000260  00000+0  85672-4 0  9998
2 43077  86.4036 161.2384 0002394 103.8755 256.2707 14.34218139375855
IRIDIUM 153             
1 43078U 17083J   25056.56573455  .00000139  00000+0  42542-4 0  9992
2 43078  86.3989 129.7472 0002556 107.6095 252.5380 14.34218549376962
IRIDIUM 131             
1 43079U 17083K   25056.53110005  .00000577  00000+0  19898-3 0  9991
2 43079  86.4042 161.3975 0002028 103.2257 256.9165 14.34218230375785
